CCSDS_OMM_VERS = 2.0
CREATION_DATE  = 
ORIGINATOR     = 

OBJECT_NAME    = SL-14 R/B
OBJECT_ID      = 1986-046B
CENTER_NAME    = EARTH
REF_FRAME      = TEME
TIME_SYSTEM    = UTC
MEAN_ELEMENT_THEORY = SGP/SGP4

EPOCH          = 2026-04-03T09:24:06.327360
MEAN_MOTION    = 14.85617217
ECCENTRICITY   = .0023995
INCLINATION    = 82.4814
RA_OF_ASC_NODE = 56.8366
ARG_OF_PERICENTER = 143.2329
MEAN_ANOMALY   = 217.0539

EPHEMERIS_TYPE = 0
CLASSIFICATION_TYPE = U
NORAD_CAT_ID   = 16792
ELEMENT_SET_NO = 999
REV_AT_EPOCH   = 13007
BSTAR          = .94304E-4
MEAN_MOTION_DOT = .845E-5
MEAN_MOTION_DDOT = 0

CCSDS_OMM_VERS = 2.0
CREATION_DATE  = 
ORIGINATOR     = 

OBJECT_NAME    = SL-14 R/B
OBJECT_ID      = 1986-055B
CENTER_NAME    = EARTH
REF_FRAME      = TEME
TIME_SYSTEM    = UTC
MEAN_ELEMENT_THEORY = SGP/SGP4

EPOCH          = 2026-04-03T12:46:38.953920
MEAN_MOTION    = 14.85667098
ECCENTRICITY   = .0017408
INCLINATION    = 82.5169
RA_OF_ASC_NODE = 103.3167
ARG_OF_PERICENTER = 248.2650
MEAN_ANOMALY   = 233.3338

EPHEMERIS_TYPE = 0
CLASSIFICATION_TYPE = U
NORAD_CAT_ID   = 16882
ELEMENT_SET_NO = 999
REV_AT_EPOCH   = 12305
BSTAR          = .86304E-4
MEAN_MOTION_DOT = .773E-5
MEAN_MOTION_DDOT = 0

CCSDS_OMM_VERS = 2.0
CREATION_DATE  = 
ORIGINATOR     = 

OBJECT_NAME    = AJISAI (EGS)
OBJECT_ID      = 1986-061A
CENTER_NAME    = EARTH
REF_FRAME      = TEME
TIME_SYSTEM    = UTC
MEAN_ELEMENT_THEORY = SGP/SGP4

EPOCH          = 2026-04-03T13:16:19.399584
MEAN_MOTION    = 12.44515608
ECCENTRICITY   = .001136
INCLINATION    = 50.0120
RA_OF_ASC_NODE = 16.8929
ARG_OF_PERICENTER = 351.0253
MEAN_ANOMALY   = 179.9141

EPHEMERIS_TYPE = 0
CLASSIFICATION_TYPE = U
NORAD_CAT_ID   = 16908
ELEMENT_SET_NO = 999
REV_AT_EPOCH   = 47109
BSTAR          = -.5476E-4
MEAN_MOTION_DOT = -.105E-5
MEAN_MOTION_DDOT = 0

CCSDS_OMM_VERS = 2.0
CREATION_DATE  = 
ORIGINATOR     = 

OBJECT_NAME    = SL-14 R/B
OBJECT_ID      = 1987-024B
CENTER_NAME    = EARTH
REF_FRAME      = TEME
TIME_SYSTEM    = UTC
MEAN_ELEMENT_THEORY = SGP/SGP4

EPOCH          = 2026-04-03T09:59:14.432064
MEAN_MOTION    = 14.86158435
ECCENTRICITY   = .0018315
INCLINATION    = 82.5262
RA_OF_ASC_NODE = 69.5170
ARG_OF_PERICENTER = 173.9200
MEAN_ANOMALY   = 186.2242

EPHEMERIS_TYPE = 0
CLASSIFICATION_TYPE = U
NORAD_CAT_ID   = 17567
ELEMENT_SET_NO = 999
REV_AT_EPOCH   = 9180
BSTAR          = .9092E-4
MEAN_MOTION_DOT = .824E-5
MEAN_MOTION_DDOT = 0

CCSDS_OMM_VERS = 2.0
CREATION_DATE  = 
ORIGINATOR     = 

OBJECT_NAME    = COSMOS 1833
OBJECT_ID      = 1987-027A
CENTER_NAME    = EARTH
REF_FRAME      = TEME
TIME_SYSTEM    = UTC
MEAN_ELEMENT_THEORY = SGP/SGP4

EPOCH          = 2026-04-03T11:53:01.060224
MEAN_MOTION    = 14.13044707
ECCENTRICITY   = .0023016
INCLINATION    = 70.9164
RA_OF_ASC_NODE = 273.8793
ARG_OF_PERICENTER = 177.5380
MEAN_ANOMALY   = 182.5859

EPHEMERIS_TYPE = 0
CLASSIFICATION_TYPE = U
NORAD_CAT_ID   = 17589
ELEMENT_SET_NO = 999
REV_AT_EPOCH   = 1382
BSTAR          = -.13939E-3
MEAN_MOTION_DOT = -.309E-5
MEAN_MOTION_DDOT = 0

CCSDS_OMM_VERS = 2.0
CREATION_DATE  = 
ORIGINATOR     = 

OBJECT_NAME    = SL-16 R/B
OBJECT_ID      = 1987-027B
CENTER_NAME    = EARTH
REF_FRAME      = TEME
TIME_SYSTEM    = UTC
MEAN_ELEMENT_THEORY = SGP/SGP4

EPOCH          = 2026-04-03T12:54:44.158176
MEAN_MOTION    = 14.17168109
ECCENTRICITY   = .0002879
INCLINATION    = 71.0024
RA_OF_ASC_NODE = 224.1295
ARG_OF_PERICENTER = 79.9906
MEAN_ANOMALY   = 280.1543

EPHEMERIS_TYPE = 0
CLASSIFICATION_TYPE = U
NORAD_CAT_ID   = 17590
ELEMENT_SET_NO = 999
REV_AT_EPOCH   = 1886
BSTAR          = .16844E-3
MEAN_MOTION_DOT = .292E-5
MEAN_MOTION_DDOT = 0

CCSDS_OMM_VERS = 2.0
CREATION_DATE  = 
ORIGINATOR     = 

OBJECT_NAME    = SL-14 R/B
OBJECT_ID      = 1987-038B
CENTER_NAME    = EARTH
REF_FRAME      = TEME
TIME_SYSTEM    = UTC
MEAN_ELEMENT_THEORY = SGP/SGP4

EPOCH          = 2026-04-03T11:47:16.013184
MEAN_MOTION    = 14.85394663
ECCENTRICITY   = .0020755
INCLINATION    = 82.4976
RA_OF_ASC_NODE = 273.4361
ARG_OF_PERICENTER = 83.2935
MEAN_ANOMALY   = 277.0642

EPHEMERIS_TYPE = 0
CLASSIFICATION_TYPE = U
NORAD_CAT_ID   = 17912
ELEMENT_SET_NO = 999
REV_AT_EPOCH   = 8291
BSTAR          = .92287E-4
MEAN_MOTION_DOT = .822E-5
MEAN_MOTION_DDOT = 0

CCSDS_OMM_VERS = 2.0
CREATION_DATE  = 
ORIGINATOR     = 

OBJECT_NAME    = COSMOS 1844
OBJECT_ID      = 1987-041A
CENTER_NAME    = EARTH
REF_FRAME      = TEME
TIME_SYSTEM    = UTC
MEAN_ELEMENT_THEORY = SGP/SGP4

EPOCH          = 2026-04-03T10:23:45.551904
MEAN_MOTION    = 14.14561437
ECCENTRICITY   = .0031447
INCLINATION    = 70.9016
RA_OF_ASC_NODE = 341.9875
ARG_OF_PERICENTER = 341.5729
MEAN_ANOMALY   = 18.4251

EPHEMERIS_TYPE = 0
CLASSIFICATION_TYPE = U
NORAD_CAT_ID   = 17973
ELEMENT_SET_NO = 999
REV_AT_EPOCH   = 708
BSTAR          = .22509E-3
MEAN_MOTION_DOT = .386E-5
MEAN_MOTION_DDOT = 0

CCSDS_OMM_VERS = 2.0
CREATION_DATE  = 
ORIGINATOR     = 

OBJECT_NAME    = SL-14 R/B
OBJECT_ID      = 1987-055B
CENTER_NAME    = EARTH
REF_FRAME      = TEME
TIME_SYSTEM    = UTC
MEAN_ELEMENT_THEORY = SGP/SGP4

EPOCH          = 2026-04-03T11:07:38.242848
MEAN_MOTION    = 14.85655284
ECCENTRICITY   = .0019229
INCLINATION    = 82.4996
RA_OF_ASC_NODE = 325.6847
ARG_OF_PERICENTER = 293.6078
MEAN_ANOMALY   = 66.3119

EPHEMERIS_TYPE = 0
CLASSIFICATION_TYPE = U
NORAD_CAT_ID   = 18153
ELEMENT_SET_NO = 999
REV_AT_EPOCH   = 7361
BSTAR          = .77589E-4
MEAN_MOTION_DOT = .698E-5
MEAN_MOTION_DDOT = 0

CCSDS_OMM_VERS = 2.0
CREATION_DATE  = 
ORIGINATOR     = 

OBJECT_NAME    = COSMOS 1867
OBJECT_ID      = 1987-060A
CENTER_NAME    = EARTH
REF_FRAME      = TEME
TIME_SYSTEM    = UTC
MEAN_ELEMENT_THEORY = SGP/SGP4

EPOCH          = 2026-04-03T12:31:00.492672
MEAN_MOTION    = 14.31507242
ECCENTRICITY   = .0014933
INCLINATION    = 65.0101
RA_OF_ASC_NODE = 237.1603
ARG_OF_PERICENTER = 280.0284
MEAN_ANOMALY   = 79.9115

EPHEMERIS_TYPE = 0
CLASSIFICATION_TYPE = U
NORAD_CAT_ID   = 18187
ELEMENT_SET_NO = 999
REV_AT_EPOCH   = 2349
BSTAR          = .43836E-4
MEAN_MOTION_DOT = .17E-6
MEAN_MOTION_DDOT = 0

CCSDS_OMM_VERS = 2.0
CREATION_DATE  = 
ORIGINATOR     = 

OBJECT_NAME    = SL-14 R/B
OBJECT_ID      = 1988-001B
CENTER_NAME    = EARTH
REF_FRAME      = TEME
TIME_SYSTEM    = UTC
MEAN_ELEMENT_THEORY = SGP/SGP4

EPOCH          = 2026-04-03T11:03:26.376480
MEAN_MOTION    = 14.85556466
ECCENTRICITY   = .0018799
INCLINATION    = 82.5157
RA_OF_ASC_NODE = 172.0698
ARG_OF_PERICENTER = 152.3600
MEAN_ANOMALY   = 207.8620

EPHEMERIS_TYPE = 0
CLASSIFICATION_TYPE = U
NORAD_CAT_ID   = 18749
ELEMENT_SET_NO = 999
REV_AT_EPOCH   = 4570
BSTAR          = .83908E-4
MEAN_MOTION_DOT = .752E-5
MEAN_MOTION_DDOT = 0

CCSDS_OMM_VERS = 2.0
CREATION_DATE  = 
ORIGINATOR     = 

OBJECT_NAME    = COSMOS 1933
OBJECT_ID      = 1988-020A
CENTER_NAME    = EARTH
REF_FRAME      = TEME
TIME_SYSTEM    = UTC
MEAN_ELEMENT_THEORY = SGP/SGP4

EPOCH          = 2026-04-03T12:11:11.157792
MEAN_MOTION    = 15.18237133
ECCENTRICITY   = .000552
INCLINATION    = 82.5134
RA_OF_ASC_NODE = 226.3506
ARG_OF_PERICENTER = 109.7843
MEAN_ANOMALY   = 250.3986

EPHEMERIS_TYPE = 0
CLASSIFICATION_TYPE = U
NORAD_CAT_ID   = 18958
ELEMENT_SET_NO = 999
REV_AT_EPOCH   = 5399
BSTAR          = .42172E-3
MEAN_MOTION_DOT = .8665E-4
MEAN_MOTION_DDOT = 0

