SL-14 R/B               
1 16792U 86046B   26093.39173990  .00000845  00000+0  94304-4 0  9990
2 16792  82.4814  56.8366 0023995 143.2329 217.0539 14.85617217130070
SL-14 R/B               
1 16882U 86055B   26093.53239530  .00000773  00000+0  86304-4 0  9990
2 16882  82.5169 103.3167 0017408 248.2650 233.3338 14.85667098123056
AJISAI (EGS)            
1 16908U 86061A   26093.55300231 -.00000105  00000+0 -54760-4 0  9997
2 16908  50.0120  16.8929 0011360 351.0253 179.9141 12.44515608471098
SL-14 R/B               
1 17567U 87024B   26093.41613926  .00000824  00000+0  90920-4 0  9996
2 17567  82.5262  69.5170 0018315 173.9200 186.2242 14.86158435 91809
COSMOS 1833             
1 17589U 87027A   26093.49515116 -.00000309  00000+0 -13939-3 0  9997
2 17589  70.9164 273.8793 0023016 177.5380 182.5859 14.13044707 13824
SL-16 R/B               
1 17590U 87027B   26093.53801109  .00000292  00000+0  16844-3 0  9991
2 17590  71.0024 224.1295 0002879  79.9906 280.1543 14.17168109 18863
SL-14 R/B               
1 17912U 87038B   26093.49115756  .00000822  00000+0  92287-4 0  9997
2 17912  82.4976 273.4361 0020755  83.2935 277.0642 14.85394663 82910
COSMOS 1844             
1 17973U 87041A   26093.43316611  .00000386  00000+0  22509-3 0  9999
2 17973  70.9016 341.9875 0031447 341.5729  18.4251 14.14561437  7081
SL-14 R/B               
1 18153U 87055B   26093.46363707  .00000698  00000+0  77589-4 0  9991
2 18153  82.4996 325.6847 0019229 293.6078  66.3119 14.85655284 73612
COSMOS 1867             
1 18187U 87060A   26093.52153348  .00000017  00000+0  43836-4 0  9992
2 18187  65.0101 237.1603 0014933 280.0284  79.9115 14.31507242 23495
SL-14 R/B               
1 18749U 88001B   26093.46072195  .00000752  00000+0  83908-4 0  9995
2 18749  82.5157 172.0698 0018799 152.3600 207.8620 14.85556466 45704
COSMOS 1933             
1 18958U 88020A   26093.50776803  .00008665  00000+0  42172-3 0  9998
2 18958  82.5134 226.3506 0005520 109.7843 250.3986 15.18237133 53997
